NORAD_CAT_ID,OBJECT_NAME,OBJECT_TYPE,EPOCH,MEAN_MOTION,ECCENTRICITY,INCLINATION,RA_OF_ASC_NODE,ARG_OF_PERICENTER,MEAN_ANOMALY,BSTAR,MEAN_MOTION_DOT,MEAN_MOTION_DDOT,TLE_LINE0,TLE_LINE1,TLE_LINE2,SEMIMAJOR_AXIS,PERIOD,APOGEE,PERIGEE,DECAYED
53011.0,STARLINK-4265,PAYLOAD,2022-10-24 06:00:00,15.08814583,0.0001609,53.2164,216.7619,57.6132,4.7998,-0.0017707,-0.00028339,0.0,0 STARLINK-4265,1 53011U 22076AB  22297.25001157 -.00028339  00000-0 -17707-2 0  9991,2 53011  53.2164 216.7619 0001609  57.6132   4.7998 15.08814583 17395,6917.958000000001,95.439,540.936,538.71,0.0
53011.0,STARLINK-4265,PAYLOAD,2022-10-24 14:00:01,15.08744745,0.0001496999999999,53.2166,215.2638,65.02600000000001,8.9524,0.0049417,0.00079035,0.0,0 STARLINK-4265,1 53011U 22076AB  22297.58334491  .00079035  00000-0  49417-2 0  9997,2 53011  53.2166 215.2638 0001497  65.0260   8.9524 15.08744745  1309,6918.172,95.444,541.072,539.001,0.0
53011.0,STARLINK-4265,PAYLOAD,2022-10-24 22:00:00,15.08825119,0.0001581,53.2166,213.7683,63.4702,22.0104,-0.0011201,-0.00018063,0.0,0 STARLINK-4265,1 53011U 22076AB  22297.91667824 -.00018063  00000-0 -11201-2 0  9999,2 53011  53.2166 213.7683 0001581  63.4702  22.0104 15.08825119  1305,6917.926,95.438,540.885,538.697,0.0
53011.0,STARLINK-4265,PAYLOAD,2022-10-25 00:00:00,15.08819486,0.0001621999999999,53.2165,213.3947,60.937,117.438,-0.00064739,-0.00010571,0.0,0 STARLINK-4265,1 53011U 22076AB  22298.00001157 -.00010571  00000-0 -64739-3 0  9992,2 53011  53.2165 213.3947 0001622  60.9370 117.4380 15.08819486 17517,6917.943,95.439,540.93,538.686,0.0
53011.0,STARLINK-4265,PAYLOAD,2022-10-25 14:00:01,15.08809261,0.0001549,53.2168,210.775,63.2768,45.3489,0.0027199,0.00043229,0.0,0 STARLINK-4265,1 53011U 22076AB  22298.58334491  .00043229  00000-0  27199-2 0  9997,2 53011  53.2168 210.7750 0001549  63.2768  45.3489 15.08809261  1307,6917.974,95.439,540.911,538.768,0.0
53011.0,STARLINK-4265,PAYLOAD,2022-10-25 22:00:01,15.08854866,0.0001686,53.2169,209.2794,62.919,57.3422,-0.0011661,-0.00018806,0.0,0 STARLINK-4265,1 53011U 22076AB  22298.91668981 -.00018806  00000-0 -11661-2 0  9990,2 53011  53.2169 209.2794 0001686  62.9190  57.3422 15.08854866  1307,6917.835,95.437,540.866,538.534,0.0
53011.0,STARLINK-4265,PAYLOAD,2022-10-26 14:00:01,15.08851836,0.0001588999999999,53.2169,206.286,63.7796,79.6402,0.001048,0.00016436,0.0,0 STARLINK-4265,1 53011U 22076AB  22299.58334491  .00016436  00000-0  10480-2 0  9993,2 53011  53.2169 206.2860 0001589  63.7796  79.6402 15.08851836  1300,6917.844,95.437,540.808,538.61,0.0
53011.0,STARLINK-4265,PAYLOAD,2022-10-26 16:00:01,15.08857967,0.0001595,53.2169,205.9116,65.6195,170.7661,0.00030255,4.533e-05,0.0,0 STARLINK-4265,1 53011U 22076AB  22299.66668981  .00004533  00000-0  30255-3 0  9994,2 53011  53.2169 205.9116 0001595  65.6195 170.7661 15.08857967 17769,6917.825,95.436,540.794,538.587,0.0
53011.0,STARLINK-4265,PAYLOAD,2022-10-26 22:00:00,15.08858085,0.0001643,53.217,204.7906,61.5113,93.5215,-0.0012788,-0.00020593,0.0,0 STARLINK-4265,1 53011U 22076AB  22299.91667824 -.00020593  00000-0 -12788-2 0  9993,2 53011  53.2170 204.7906 0001643  61.5113  93.5215 15.08858085  1306,6917.825,95.436,540.827,538.554,0.0
53011.0,STARLINK-4265,PAYLOAD,2022-10-27 14:00:01,15.08819999,0.0001459,53.2167,201.7969,61.4182,116.9124,0.0033319,0.0005311,0.0,0 STARLINK-4265,1 53011U 22076AB  22300.58335648  .00053110  00000-0  33319-2 0  9997,2 53011  53.2167 201.7969 0001459  61.4182 116.9124 15.08819999 17901,6917.941999999999,95.439,540.816,538.797,0.0
53011.0,STARLINK-4265,PAYLOAD,2022-10-27 22:00:00,15.08878964,0.0001520999999999,53.2168,200.3017,59.63,130.2283,-0.0037996,-0.00060317,0.0,0 STARLINK-4265,1 53011U 22076AB  22300.91667824 -.00060317  00000-0 -37996-2 0  9992,2 53011  53.2168 200.3017 0001521  59.6300 130.2283 15.08878964  1301,6917.761,95.435,540.678,538.5740000000002,0.0
53011.0,STARLINK-4265,PAYLOAD,2022-10-28 08:00:01,15.08872216,0.0001523,53.2163,198.4312,55.8539,238.5861,-0.0037625,-0.00059724,0.0,0 STARLINK-4265,1 53011U 22076AB  22301.33335648 -.00059724  00000-0 -37625-2 0  9994,2 53011  53.2163 198.4312 0001523  55.8539 238.5861 15.08872216 18019,6917.781999999997,95.436,540.7,538.5930000000002,0.0
53011.0,STARLINK-4265,PAYLOAD,2022-10-28 14:00:01,15.08807273,0.0001455,53.2163,197.3078,62.837,150.3193,0.0035109,0.00055982,0.0,0 STARLINK-4265,1 53011U 22076AB  22301.58335648  .00055982  00000-0  35109-2 0  9996,2 53011  53.2163 197.3078 0001455  62.8370 150.3193 15.08807273  1305,6917.98,95.44,540.852,538.839,0.0
53011.0,STARLINK-4265,PAYLOAD,2022-10-28 22:00:01,15.08865271,0.0001527,53.2162,195.8128,60.4728,164.2598,-0.0036387,-0.00057774,0.0,0 STARLINK-4265,1 53011U 22076AB  22301.91668981 -.00057774  00000-0 -36387-2 0  9994,2 53011  53.2162 195.8128 0001527  60.4728 164.2598 15.08865271  1309,6917.803000000001,95.436,540.724,538.612,0.0
53011.0,STARLINK-4265,PAYLOAD,2022-10-29 00:00:02,15.0885002,0.0001576999999999,53.2161,195.439,58.2028,259.4352,-0.0024258,-0.00038698,0.0,0 STARLINK-4265,1 53011U 22076AB  22302.00002315 -.00038698  00000-0 -24258-2 0  9996,2 53011  53.2161 195.4390 0001577  58.2028 259.4352 15.08850020 18116,6917.85,95.437,540.806,538.624,0.0
53011.0,STARLINK-4265,PAYLOAD,2022-10-29 12:00:00,15.08801414,0.0001443999999999,53.2158,193.1932,64.4699,90.4965,0.0015054,0.00023726,0.0,0 STARLINK-4265,1 53011U 22076AB  22302.50001157  .00023726  00000-0  15054-2 0  9992,2 53011  53.2158 193.1932 0001444  64.4699  90.4965 15.08801414  1304,6917.998000000001,95.44,540.862,538.864,0.0
53011.0,STARLINK-4265,PAYLOAD,2022-10-29 22:00:01,15.08852463,0.0001579,53.2155,191.3238,62.6314,196.8914,-0.00024494,-4.186e-05,0.0,0 STARLINK-4265,1 53011U 22076AB  22302.91668981 -.00004186  00000-0 -24494-3 0  9991,2 53011  53.2155 191.3238 0001579  62.6314 196.8914 15.08852463  1308,6917.842,95.437,540.8,538.615,0.0
53011.0,STARLINK-4265,PAYLOAD,2022-10-30 02:00:01,15.08847258,0.0001615,53.2156,190.5762,59.5909,25.6751,0.00032941,4.959e-05,0.0,0 STARLINK-4265,1 53011U 22076AB  22303.08334491  .00004959  00000-0  32941-3 0  9998,2 53011  53.2156 190.5762 0001615  59.5909  25.6751 15.08847258 18276,6917.858,95.437,540.84,538.606,0.0
53011.0,STARLINK-4265,PAYLOAD,2022-10-30 14:00:01,15.08828154,0.0001481,53.2151,188.3296,66.6697,215.9727,0.00038142,5.786e-05,0.0,0 STARLINK-4265,1 53011U 22076AB  22303.58334491  .00005786  00000-0  38142-3 0  9991,2 53011  53.2151 188.3296 0001481  66.6697 215.9727 15.08828154  1309,6917.917,95.438,540.806,538.757,0.0
53011.0,STARLINK-4265,PAYLOAD,2022-10-30 22:00:01,15.08841168,0.0001615,53.2151,186.8347,62.8671,231.4225,-0.0016422,-0.0002633,0.0,0 STARLINK-4265,1 53011U 22076AB  22303.91668981 -.00026330  00000-0 -16422-2 0  9998,2 53011  53.2151 186.8347 0001615  62.8671 231.4225 15.08841168  1304,6917.877,95.437,540.859,538.625,0.0
53011.0,STARLINK-4265,PAYLOAD,2022-10-31 14:00:01,15.08799637,0.0001483,53.215,183.8404,66.3,251.0884,0.0037195,0.00059341,0.0,0 STARLINK-4265,1 53011U 22076AB  22304.58334491  .00059341  00000-0  37195-2 0  9994,2 53011  53.2150 183.8404 0001483  66.3000 251.0884 15.08799637  1304,6918.004,95.44,540.895,538.8430000000002,0.0
53011.0,STARLINK-4265,PAYLOAD,2022-10-31 22:00:01,15.08853966,0.0001567,53.2151,182.3456,60.0091,269.0139,-0.0026883,-0.00042835,0.0,0 STARLINK-4265,1 53011U 22076AB  22304.91668981 -.00042835  00000-0 -26883-2 0  9999,2 53011  53.2151 182.3456 0001567  60.0091 269.0139 15.08853966  1308,6917.8380000000025,95.437,540.7869999999998,538.619,0.0
53011.0,STARLINK-4265,PAYLOAD,2022-11-01 00:00:02,15.08842517,0.0001601,53.2153,181.9719,58.5655,3.3597,-0.0017012999999999,-0.00027264,0.0,0 STARLINK-4265,1 53011U 22076AB  22305.00002315 -.00027264  00000-0 -17013-2 0  9997,2 53011  53.2153 181.9719 0001601  58.5655   3.3597 15.08842517 18567,6917.873000000001,95.437,540.845,538.63,0.0
53011.0,STARLINK-4265,PAYLOAD,2022-11-01 14:00:01,15.08814189,0.0001440999999999,53.2154,179.3512,63.752,288.3939,0.0035713999999999,0.0005697,0.0,0 STARLINK-4265,1 53011U 22076AB  22305.58334491  .00056970  00000-0  35714-2 0  9995,2 53011  53.2154 179.3512 0001441  63.7520 288.3939 15.08814189 18650,6917.959,95.439,540.821,538.827,0.0
53011.0,STARLINK-4265,PAYLOAD,2022-11-01 22:00:00,15.08867186,0.0001563,53.2156,177.8565,57.0315,306.7016,-0.0031455,-0.00050038,0.0,0 STARLINK-4265,1 53011U 22076AB  22305.91667824 -.00050038  00000-0 -31455-2 0  9990,2 53011  53.2156 177.8565 0001563  57.0315 306.7016 15.08867186  1306,6917.797,95.436,540.744,538.581,0.0
53011.0,STARLINK-4265,PAYLOAD,2022-11-02 06:00:00,15.08852093,0.0001533,53.2157,176.3598,54.1618,321.1755,-0.0038696999999999,-0.0006137,0.0,0 STARLINK-4265,1 53011U 22076AB  22306.25001157 -.00061370  00000-0 -38697-2 0  9995,2 53011  53.2157 176.3598 0001533  54.1618 321.1755 15.08852093 18757,6917.843000000003,95.437,540.769,538.648,0.0
53011.0,STARLINK-4265,PAYLOAD,2022-11-02 14:00:01,15.08798238,0.0001485,53.216,174.86,64.3334,322.5924,0.003397,0.00054129,0.0,0 STARLINK-4265,1 53011U 22076AB  22306.58334491  .00054129  00000-0  33970-2 0  9992,2 53011  53.2160 174.8600 0001485  64.3334 322.5924 15.08798238  1308,6918.0080000000025,95.44,540.9,538.846,0.0
53011.0,STARLINK-4265,PAYLOAD,2022-11-02 18:39:05,15.08816572,0.0001575999999999,53.2157,173.9955,55.537,304.577,0.00022486,3.2899999999999987e-05,0.0,0 STARLINK-4265,1 53011U 22076AB  22306.77714170  .00003290  00000-0  22486-3 0  9993,2 53011  53.2157 173.9955 0001576  55.5370 304.5770 15.08816572 18837,6917.9519999999975,95.439,540.9069999999998,538.727,0.0
53011.0,STARLINK-4265,PAYLOAD,2022-11-03 02:36:00,15.08833199,0.0001686,53.2166,172.5067,59.8881,300.2278,1.3009e-05,-8.1e-07,0.0,0 STARLINK-4265,1 53011U 22076AB  22307.10833863 -.00000081  00000-0  13009-4 0  9990,2 53011  53.2166 172.5067 0001686  59.8881 300.2278 15.08833199 18887,6917.901,95.438,540.933,538.6,0.0
